BEIDOU-2 IGSO-1 (C06)   
1 36828U 10036A   25046.67184795 -.00000124  00000+0  00000+0 0  9997
2 36828  54.2689 167.3617 0044651 208.7517 118.0260  1.00260322 53343
BEIDOU-2 G4 (C04)       
1 37210U 10057A   25046.58277766 -.00000111  00000+0  00000+0 0  9993
2 37210   2.4386  70.4368 0008288 202.8844 242.2648  1.00273145 52413
BEIDOU-2 IGSO-2 (C07)   
1 37256U 10068A   25046.36557271 -.00000172  00000+0  00000+0 0  9990
2 37256  48.4283 277.8427 0038608 212.9474 254.7840  1.00275243 51915
BEIDOU-2 IGSO-3 (C08)   
1 37384U 11013A   25046.35568763 -.00000154  00000+0  00000+0 0  9990
2 37384  61.7169  44.7687 0031539 185.0368 149.4313  1.00297107 50776
BEIDOU-2 IGSO-4 (C09)   
1 37763U 11038A   25046.66990815 -.00000074  00000+0  00000+0 0  9990
2 37763  54.5735 170.0217 0134309 229.0577  81.8681  1.00257113 49765
BEIDOU-2 IGSO-5 (C10)   
1 37948U 11073A   25045.55553130 -.00000149  00000+0  00000+0 0  9999
2 37948  48.5660 277.5519 0100674 220.0802 303.5062  1.00277521 48512
BEIDOU-2 G5 (C05)       
1 38091U 12008A   25045.83949139  .00000055  00000+0  00000+0 0  9992
2 38091   2.3584  71.2437 0013599 243.8833 190.8733  1.00273928 47483
BEIDOU-2 M3 (C11)       
1 38250U 12018A   25046.17157477 -.00000089  00000+0  00000+0 0  9992
2 38250  56.1612 321.2361 0022880 273.3146  86.4645  1.86233772 86876
BEIDOU-2 M4 (C12)       
1 38251U 12018B   25046.10271306 -.00000088  00000+0  00000+0 0  9993
2 38251  56.0658 320.4915 0013928 279.3740  80.5101  1.86232238 86879
BEIDOU-2 M6 (C14)       
1 38775U 12050B   25046.34955724 -.00000022  00000+0  00000+0 0  9997
2 38775  56.1150  79.0463 0013476 334.1503  25.8505  1.86231084 84245
BEIDOU-2 G6 (C02)       
1 38953U 12059A   25046.63432998 -.00000174  00000+0  00000+0 0  9997
2 38953   3.1817  78.4912 0009950 295.0566  84.7066  1.00272048 45179
BEIDOU-3S IGSO-1S (C31) 
1 40549U 15019A   25046.64187787 -.00000139  00000+0  00000+0 0  9995
2 40549  50.1140 301.3016 0033509 195.6467 331.8933  1.00251094 36187
BEIDOU-3S M2S (C58)     
1 40748U 15037A   25045.23048303 -.00000086  00000+0  00000+0 0  9991
2 40748  55.2911 318.7893 0010206 271.3018  88.6236  1.86229142 65030
BEIDOU-3S M1S (C57)     
1 40749U 15037B   25046.03744091 -.00000087  00000+0  00000+0 0  9999
2 40749  55.2871 318.7551 0004495   4.0181 356.0288  1.86253855 65051
BEIDOU-3S IGSO-2S (C56) 
1 40938U 15053A   25043.08725264 -.00000066  00000+0  00000+0 0  9997
2 40938  49.9805 264.5883 0052128 186.8108 174.8851  1.00251841 34448
BEIDOU-2 IGSO-6 (C13)   
1 41434U 16021A   25046.35375244 -.00000137  00000+0  00000+0 0  9996
2 41434  59.5383  42.8967 0054586 229.9016  96.4282  1.00267924 32595
BEIDOU-2 G7 (C03)       
1 41586U 16037A   25046.50753744 -.00000353  00000+0  00000+0 0  9993
2 41586   1.9637  68.2270 0008624 345.9939  24.7668  1.00274062  2017
BEIDOU-3 M1 (C19)       
1 43001U 17069A   25045.04144124 -.00000016  00000+0  00000+0 0  9993
2 43001  56.2635  79.2175 0011817 300.8987  59.0574  1.86231390 49513
BEIDOU-3 M2 (C20)       
1 43002U 17069B   25046.59000707 -.00000023  00000+0  00000+0 0  9991
2 43002  56.2638  79.2023 0009143 320.2487  39.7518  1.86231017 49530
BEIDOU-3 M7 (C27)       
1 43107U 18003A   25046.33687127 -.00000088  00000+0  00000+0 0  9996
2 43107  54.7489 319.2356 0004198  58.3983 301.6852  1.86232486 48299
BEIDOU-3 M8 (C28)       
1 43108U 18003B   25046.27930591 -.00000088  00000+0  00000+0 0  9996
2 43108  54.7419 319.2218 0003817 284.4581  75.5423  1.86230973 48293
BEIDOU-3 M4 (C22)       
1 43207U 18018A   25046.18349320 -.00000021  00000+0  00000+0 0  9993
2 43207  56.2232  79.2605 0006066 341.0250  19.0214  1.86231334 47672
BEIDOU-3 M3 (C21)       
1 43208U 18018B   25046.25003116 -.00000021  00000+0  00000+0 0  9992
2 43208  56.2228  79.2625 0009363 310.2676  49.7192  1.86231476 47675
BEIDOU-3 M9 (C29)       
1 43245U 18029A   25045.39520417 -.00000084  00000+0  00000+0 0  9996
2 43245  54.6256 316.9518 0001321 328.6048  31.4320  1.86232788 46816
BEIDOU-3 M10 (C30)      
1 43246U 18029B   25046.39942083 -.00000085  00000+0  00000+0 0  9996
2 43246  54.6220 316.9447 0005025   8.1084 351.9455  1.86229021 46820
BEIDOU-2 IGSO-7 (C16)   
1 43539U 18057A   25046.67673568 -.00000132  00000+0  00000+0 0  9995
2 43539  55.1599 167.2787 0084238 234.5868  98.6551  1.00294172 24241
BEIDOU-3 M5 (C23)       
1 43581U 18062A   25046.62500816  .00000034  00000+0  00000+0 0  9998
2 43581  54.1105 198.8470 0001478 327.4539  32.4860  1.86228814 44572
BEIDOU-3 M6 (C24)       
1 43582U 18062B   25045.95262839  .00000026  00000+0  00000+0 0  9995
2 43582  54.1102 198.8592 0006687  44.3004 315.6997  1.86229653 44562
BEIDOU-3 M12 (C26)      
1 43602U 18067A   25045.35035776  .00000018  00000+0  00000+0 0  9996
2 43602  54.2027 197.5833 0008363  36.9408 323.0612  1.86227842 44031
BEIDOU-3 M11 (C25)      
1 43603U 18067B   25046.55798454  .00000033  00000+0  00000+0 0  9996
2 43603  54.2000 197.5070 0004879  32.9830 326.9960  1.86227356 44082
BEIDOU-3 M13 (C32)      
1 43622U 18072A   25046.51811123 -.00000023  00000+0  00000+0 0  9998
2 43622  56.1955  78.7736 0008470 297.8459  62.1355  1.86231203 43590
BEIDOU-3 M14 (C33)      
1 43623U 18072B   25045.84663878 -.00000020  00000+0  00000+0 0  9993
2 43623  56.1968  78.7894 0005818 317.7138  42.3108  1.86231185 43572
BEIDOU-3 M16 (C35)      
1 43647U 18078A   25044.93368447 -.00000084  00000+0  00000+0 0  9998
2 43647  54.5222 317.0466 0008131  18.0023 342.0701  1.86232390 43064
BEIDOU-3 M15 (C34)      
1 43648U 18078B   25046.13679648 -.00000085  00000+0  00000+0 0  9992
2 43648  54.5170 317.0067 0005008  22.5720 337.4954  1.86232236 43100
BEIDOU-3 G1 (C59)       
1 43683U 18085A   25046.34724564 -.00000279  00000+0  00000+0 0  9995
2 43683   2.7979 101.4231 0001608 353.7912 315.4060  1.00269069 23172
BEIDOU-3 M17 (C36)      
1 43706U 18093A   25042.53166370  .00000004  00000+0  00000+0 0  9997
2 43706  54.1942 198.9422 0006297 295.4128  64.4690  1.86228393 42408
BEIDOU-3 M18 (C37)      
1 43707U 18093B   25046.15372088  .00000028  00000+0  00000+0 0  9991
2 43707  54.1947 198.8111 0005805 338.8098  21.1134  1.86229984 42466
BEIDOU-3 IGSO-1 (C38)   
1 44204U 19023A   25046.21438336 -.00000194  00000+0  00000+0 0  9999
2 44204  58.0024  42.6822 0023088 227.3749  72.0388  1.00282190  2322
BEIDOU-2 G8 (C01)       
1 44231U 19027A   25046.56981304 -.00000246  00000+0  00000+0 0  9997
2 44231   1.3833  74.4177 0006041 243.0763 177.8788  1.00275354 21208
BEIDOU-3 IGSO-2 (C39)   
1 44337U 19035A   25046.68049263 -.00000138  00000+0  00000+0 0  9995
2 44337  55.2002 163.1332 0036105 199.9171 145.4910  1.00263955 20814
BEIDOU-3 M24 (C46)      
1 44542U 19061A   25046.76106315  .00000037  00000+0  00000+0 0  9990
2 44542  54.4218 199.1334 0008446  17.9372 342.0422  1.86229132 36736
BEIDOU-3 M23 (C45)      
1 44543U 19061B   25045.80953008  .00000024  00000+0  00000+0 0  9990
2 44543  54.4201 199.1340 0005111  15.5081 339.1732  1.86229441 36715
BEIDOU-3 IGSO-3 (C40)   
1 44709U 19073A   25046.05829961 -.00000157  00000+0  00000+0 0  9993
2 44709  55.6328 286.1425 0041357 182.5148 177.5576  1.00282863 19572
BEIDOU-3 M22 (C44)      
1 44793U 19078A   25046.06787846 -.00000085  00000+0  00000+0 0  9997
2 44793  54.3685 316.9095 0007015  23.4081 336.6691  1.86232089 35577
BEIDOU-3 M21 (C43)      
1 44794U 19078B   25046.19854053 -.00000086  00000+0  00000+0 0  9998
2 44794  54.3418 316.8759 0005114  16.3039 343.7580  1.86227810 35583
BEIDOU-3 M19 (C41)      
1 44864U 19090A   25046.63583336 -.00000023  00000+0  00000+0 0  9993
2 44864  56.1299  78.9274 0019849 284.0428 201.8325  1.86231716 35167
BEIDOU-3 M20 (C42)      
1 44865U 19090B   25046.33562282 -.00000022  00000+0  00000+0 0  9997
2 44865  56.1313  78.9711 0017343 295.5610  78.7242  1.86231670 35155
BEIDOU-3 G2 (C60)       
1 45344U 20017A   25046.63326862 -.00000140  00000+0  00000+0 0  9997
2 45344   2.6665  37.5885 0003224 290.1536 126.1422  1.00272331 18387
BEIDOU-3 G3 (C61)       
1 45807U 20040A   25046.50753745 -.00000353  00000+0  00000+0 0  9993
2 45807   1.2772  60.4844 0003597 313.1250  65.3749  1.00271810 17192
BEIDOU-3 G4 (C62)       
1 56564U 23066A   25046.58305263 -.00000110  00000+0  00000+0 0  9993
2 56564   1.5192 289.9234 0001769 246.7123 339.1092  1.00272577  6511
BEIDOU-3 M28 (C50)      
1 58654U 23207A   25045.74327279 -.00000022  00000+0  00000+0 0  9992
2 58654  55.3158  78.8043 0004539 284.4772  75.5418  1.86232093  7766
BEIDOU-3 M26 (C48)      
1 58655U 23207B   25046.61673222 -.00000026  00000+0  00000+0 0  9996
2 58655  55.3187  78.7605 0005463 271.2249  88.7791  1.86231573  7764
